[{"OBJECT_NAME":"SHIJIAN-6 03B (SJ-6 03B)","OBJECT_ID":"2008-053B","EPOCH":"2026-03-09T23:28:00.216192","MEAN_MOTION":15.03879314,"ECCENTRICITY":0.00200774,"INCLINATION":97.8673,"RA_OF_ASC_NODE":87.2117,"ARG_OF_PERICENTER":21.0315,"MEAN_ANOMALY":339.1731,"EPHEMERIS_TYPE":0,"CLASSIFICATION_TYPE":"U","NORAD_CAT_ID":33409,"ELEMENT_SET_NO":999,"REV_AT_EPOCH":94783,"BSTAR":0.00032650966,"MEAN_MOTION_DOT":4.452e-5,"MEAN_MOTION_DDOT":0},{"OBJECT_NAME":"STARLINK-5522","OBJECT_ID":"2023-064BC","EPOCH":"2026-03-09T11:43:29.094816","MEAN_MOTION":14.98324957,"ECCENTRICITY":0.0002967,"INCLINATION":69.9996,"RA_OF_ASC_NODE":104.9153,"ARG_OF_PERICENTER":262.7845,"MEAN_ANOMALY":97.2977,"EPHEMERIS_TYPE":0,"CLASSIFICATION_TYPE":"U","NORAD_CAT_ID":56498,"ELEMENT_SET_NO":999,"REV_AT_EPOCH":15620,"BSTAR":-7.7807843e-5,"MEAN_MOTION_DOT":-1.021e-5,"MEAN_MOTION_DDOT":0}]
